{
  "norad_id": 59431,
  "name": "STARLINK-31613",
  "history": [
    {
      "epoch": "2026-03-28T18:46:24.373920Z",
      "apogee_km": 475.88281269869094,
      "perigee_km": 474.5392823474549,
      "latitude_deg": 3.999449306059609e-05,
      "longitude_deg": 85.11593824549318,
      "height_km": 475.9428350066333,
      "semi_major_axis_km": 6853.348047523073,
      "eccentricity": 9.802e-05,
      "inclination_deg": 53.162,
      "raan_deg": 192.9152,
      "arg_perigee_deg": 75.6113,
      "mean_anomaly_deg": 284.4997,
      "mean_motion_rev_day": 15.30201347
    },
    {
      "epoch": "2026-03-30T13:05:51.509184Z",
      "apogee_km": 476.0919653290048,
      "perigee_km": 474.3825967158318,
      "latitude_deg": 1.750440427252281e-06,
      "longitude_deg": 160.32105390404817,
      "height_km": 475.8791022270496,
      "semi_major_axis_km": 6853.3742810224185,
      "eccentricity": 0.00012471,
      "inclination_deg": 53.1602,
      "raan_deg": 184.7216,
      "arg_perigee_deg": 72.5437,
      "mean_anomaly_deg": 287.57,
      "mean_motion_rev_day": 15.30192561
    },
    {
      "epoch": "2026-03-30T16:13:57.790848Z",
      "apogee_km": 476.09044221914246,
      "perigee_km": 474.3699729153541,
      "latitude_deg": 2.5357220440943827e-05,
      "longitude_deg": 112.55914495466388,
      "height_km": 475.9077051680834,
      "semi_major_axis_km": 6853.3672075672475,
      "eccentricity": 0.00012552,
      "inclination_deg": 53.1602,
      "raan_deg": 184.1146,
      "arg_perigee_deg": 75.1358,
      "mean_anomaly_deg": 284.9782,
      "mean_motion_rev_day": 15.3019493
    },
    {
      "epoch": "2026-03-31T06:20:26.033280Z",
      "apogee_km": 476.07353027871886,
      "perigee_km": 474.3163359710661,
      "latitude_deg": 3.770323827596651e-05,
      "longitude_deg": -102.36791051286238,
      "height_km": 475.8884151066134,
      "semi_major_axis_km": 6853.331933124892,
      "eccentricity": 0.0001282,
      "inclination_deg": 53.1595,
      "raan_deg": 181.3846,
      "arg_perigee_deg": 76.5357,
      "mean_anomaly_deg": 283.5787,
      "mean_motion_rev_day": 15.30206744
    },
    {
      "epoch": "2026-04-01T12:07:26.574816Z",
      "apogee_km": 475.94768948414,
      "perigee_km": 474.38787731543835,
      "latitude_deg": -4.062604412044083e-05,
      "longitude_deg": 163.89271216949328,
      "height_km": 475.8845181700072,
      "semi_major_axis_km": 6853.304783399789,
      "eccentricity": 0.0001138,
      "inclination_deg": 53.1603,
      "raan_deg": 175.6207,
      "arg_perigee_deg": 76.5344,
      "mean_anomaly_deg": 283.5783,
      "mean_motion_rev_day": 15.30215837
    },
    {
      "epoch": "2026-04-02T11:38:15.188064Z",
      "apogee_km": 475.99258769244625,
      "perigee_km": 474.4426330137685,
      "latitude_deg": 1.6755058095540185e-06,
      "longitude_deg": 165.67762415150352,
      "height_km": 475.9708243166897,
      "semi_major_axis_km": 6853.354610353107,
      "eccentricity": 0.00011308,
      "inclination_deg": 53.1608,
      "raan_deg": 171.0738,
      "arg_perigee_deg": 79.2038,
      "mean_anomaly_deg": 280.909,
      "mean_motion_rev_day": 15.30199149
    },
    {
      "epoch": "2026-04-02T22:36:37.084896Z",
      "apogee_km": 475.85940895397016,
      "perigee_km": 474.4891578959623,
      "latitude_deg": 3.704485811945604e-05,
      "longitude_deg": -1.4877207715454952,
      "height_km": 475.8261684492184,
      "semi_major_axis_km": 6853.311283424966,
      "eccentricity": 9.997e-05,
      "inclination_deg": 53.1602,
      "raan_deg": 168.9503,
      "arg_perigee_deg": 68.8975,
      "mean_anomaly_deg": 291.2133,
      "mean_motion_rev_day": 15.3021366
    },
    {
      "epoch": "2026-04-03T11:09:03.608640Z",
      "apogee_km": 476.15415808491707,
      "perigee_km": 474.4048920510595,
      "latitude_deg": -1.1320293764768782e-05,
      "longitude_deg": 167.45549930907194,
      "height_km": 476.3495604310996,
      "semi_major_axis_km": 6853.416525067988,
      "eccentricity": 0.00012762,
      "inclination_deg": 53.1598,
      "raan_deg": 166.5191,
      "arg_perigee_deg": 101.3391,
      "mean_anomaly_deg": 258.7753,
      "mean_motion_rev_day": 15.30178413
    },
    {
      "epoch": "2026-04-04T10:39:51.015744Z",
      "apogee_km": 476.0737074807821,
      "perigee_km": 474.37791138721605,
      "latitude_deg": 7.6009699204602395e-06,
      "longitude_deg": 169.24573182051793,
      "height_km": 476.20265451696895,
      "semi_major_axis_km": 6853.362809433999,
      "eccentricity": 0.00012372,
      "inclination_deg": 53.1604,
      "raan_deg": 161.9725,
      "arg_perigee_deg": 95.3243,
      "mean_anomaly_deg": 264.7899,
      "mean_motion_rev_day": 15.30196403
    },
    {
      "epoch": "2026-04-05T13:18:46.886112Z",
      "apogee_km": 476.4083476948881,
      "perigee_km": 474.17426713523764,
      "latitude_deg": 9.070675898035236e-06,
      "longitude_deg": 123.25750869471639,
      "height_km": 476.43745144052224,
      "semi_major_axis_km": 6853.428307415063,
      "eccentricity": 0.00016299,
      "inclination_deg": 53.1612,
      "raan_deg": 156.8115,
      "arg_perigee_deg": 102.8485,
      "mean_anomaly_deg": 257.2698,
      "mean_motion_rev_day": 15.30174467
    },
    {
      "epoch": "2026-04-05T16:26:52.996704Z",
      "apogee_km": 476.21927017018334,
      "perigee_km": 474.3249878869192,
      "latitude_deg": -5.730149444811896e-06,
      "longitude_deg": 75.49528549709575,
      "height_km": 476.5028573098494,
      "semi_major_axis_km": 6853.4091290285505,
      "eccentricity": 0.0001382,
      "inclination_deg": 53.1599,
      "raan_deg": 156.2035,
      "arg_perigee_deg": 110.5655,
      "mean_anomaly_deg": 249.5494,
      "mean_motion_rev_day": 15.3018089
    }
  ]
}